{
  "norad_id": 58767,
  "name": "STARLINK-31140",
  "history": [
    {
      "epoch": "2026-03-28T20:17:47.875200",
      "apogee_km": 475.8925464592694,
      "perigee_km": 474.55367402813135,
      "latitude_deg": 46.31093594791915,
      "longitude_deg": 137.88652800000273,
      "semi_major_axis_km": 6853.3601102437,
      "eccentricity": 9.768e-05,
      "inclination_deg": 53.1603,
      "raan_deg": 284.6643,
      "arg_perigee_deg": 98.2403,
      "mean_anomaly_deg": 261.8708,
      "mean_motion_rev_day": 15.30197307
    }
  ]
}